{
    "links": {
        "self": "http://www.neowsapp.com/rest/v1/neo/3596847?api_key=iIulBulltgU6a56xZRHN4H3l9WmuAYTsLGpBGhQ2"
    },
    "id": "3596847",
    "neo_reference_id": "3596847",
    "name": "(2012 BL86)",
    "designation": "2012 BL86",
    "nasa_jpl_url": "http://ssd.jpl.nasa.gov/sbdb.cgi?sstr=3596847",
    "absolute_magnitude_h": 24.0,
    "estimated_diameter": {
        "kilometers": {
            "estimated_diameter_min": 0.0421264611,
            "estimated_diameter_max": 0.0941976306
        },
        "meters": {
            "estimated_diameter_min": 42.1264610556,
            "estimated_diameter_max": 94.1976305719
        },
        "miles": {
            "estimated_diameter_min": 0.0261761612,
            "estimated_diameter_max": 0.0585316759
        },
        "feet": {
            "estimated_diameter_min": 138.2101784897,
            "estimated_diameter_max": 309.0473542854
        }
    },
    "is_potentially_hazardous_asteroid": false,
    "close_approach_data": [
        {
            "close_approach_date": "2007-11-19",
            "close_approach_date_full": "2007-Nov-19 05:01",
            "epoch_date_close_approach": 1195448460000,
            "relative_velocity": {
                "kilometers_per_second": "17.0127638276",
                "kilometers_per_hour": "61245.9497793683",
                "miles_per_hour": "38055.8514059636"
            },
            "miss_distance": {
                "astronomical": "0.3128717013",
                "lunar": "121.7070918057",
                "kilometers": "46804940.097756231",
                "miles": "29083241.1689327478"
            },
            "orbiting_body": "Earth"
        },
        {
            "close_approach_date": "2012-01-22",
            "close_approach_date_full": "2012-Jan-22 12:39",
            "epoch_date_close_approach": 1327235940000,
            "relative_velocity": {
                "kilometers_per_second": "9.2409869375",
                "kilometers_per_hour": "33267.5529751354",
                "miles_per_hour": "20671.1636805779"
            },
            "miss_distance": {
                "astronomical": "0.0519861998",
                "lunar": "20.2226317222",
                "kilometers": "7777024.759474426",
                "miles": "4832419.1032860388"
            },
            "orbiting_body": "Earth"
        }
    ],
    "orbital_data": {
        "orbit_id": "8",
        "orbit_determination_date": "2017-04-06 08:51:07",
        "first_observation_date": "2012-01-29",
        "last_observation_date": "2012-02-27",
        "data_arc_in_days": 29,
        "observations_used": 45,
        "orbit_uncertainty": "7",
        "minimum_orbit_intersection": ".0249801",
        "jupiter_tisserand_invariant": "3.142",
        "epoch_osculation": "2459000.5",
        "eccentricity": ".6073388518657058",
        "semi_major_axis": "2.555658637899644",
        "inclination": "6.542325772497844",
        "ascending_node_longitude": "115.0238941715225",
        "orbital_period": "1492.288159581388",
        "perihelion_distance": "1.003507854997001",
        "perihelion_argument": "348.0935162133526",
        "aphelion_distance": "4.107809420802288",
        "perihelion_time": "2458920.879167847807",
        "mean_anomaly": "19.20775112417307",
        "mean_motion": ".2412402709815684",
        "equinox": "J2000",
        "orbit_class": {
            "orbit_class_type": "APO",
            "orbit_class_description": "Near-Earth asteroid orbits which cross the Earth’s orbit similar to that of 1862 Apollo",
            "orbit_class_range": "a (semi-major axis) > 1.0 AU; q (perihelion) < 1.017 AU"
        }
    },
    "is_sentry_object": false
}